ORBCOMM FM115           
1 41186U 15081H   24323.51688750  .00001556  00000+0  34417-3 0  9997
2 41186  46.9996 320.9390 0000580 250.9266 109.1558 14.61665556476948
ORBCOMM FM108           
1 41187U 15081J   24323.49597301  .00001814  00000+0  43228-3 0  9993
2 41187  47.0055  21.4866 0001695  20.4985 339.5968 14.57475529476054
ORBCOMM FM117           
1 41188U 15081K   24323.53118796  .00001788  00000+0  42688-3 0  9995
2 41188  47.0018  20.1579 0001846  46.4350 313.6688 14.57441367476104
ORBCOMM FM116           
1 41189U 15081L   24323.52050991  .00001134  00000+0  28431-3 0  9992
2 41189  47.0014 110.0424 0002347 182.3873 177.7001 14.57432602474913
